AMC-1 (GE-1)            
1 24315U 96054A   22239.44507042  .00000063  00000+0  00000+0 0  9990
2 24315   5.7819  72.5470 0002965  81.2421 211.1897  1.00272288 32387
AMC-3 (GE-3)            
1 24936U 97050A   22239.46021773 -.00000262  00000+0  00000+0 0  9992
2 24936   4.7125  78.8206 0002792  78.1852 272.3414  1.00271171 38494
ASTRA 1G                
1 25071U 97076A   22239.25427493  .00000114  00000+0  00000+0 0  9992
2 25071   6.4011  67.7422 0003345  91.1644 287.5046  1.00274546 90579
ASTRA 2A                
1 25462U 98050A   22239.47708897  .00000066  00000+0  00000+0 0  9999
2 25462   3.5754  84.8196 0002364  82.7166  37.0962  1.00271900 32402
AMC-4 (GE-4)            
1 25954U 99060A   22239.34983135  .00000085  00000+0  00000+0 0  9994
2 25954   1.6920  91.0679 0002770  64.9838 170.5522  1.00272951 29618
NSS-11 (AAP-1)          
1 26554U 00059A   22239.47447118  .00000022  00000+0  00000+0 0  9992
2 26554   0.0690 289.8827 0002246 219.8255 172.7815  1.00271513 27357
AMC-6 (GE-6)            
1 26580U 00067A   22239.53180288  .00000102  00000+0  00000+0 0  9998
2 26580   0.0642 290.2536 0002758 238.8692 219.0633  1.00271921 79971
ASTRA 2D                
1 26638U 00081A   22239.11173581  .00000127  00000+0  00000+0 0  9997
2 26638   7.4387  59.8221 0001679 127.0877 212.3105  1.00269483 38961
AMC-8 (GE-8)            
1 26639U 00081B   22239.53653424  .00000085  00000+0  00000+0 0  9996
2 26639   2.6208  87.8369 0002821  31.6700 274.3835  1.00272533 79390
ASTRA 2C                
1 26853U 01025A   22239.45127765 -.00000261  00000+0  00000+0 0  9995
2 26853   4.7367  78.6250 0002697  84.1783 262.8725  1.00271656 31101
ASTRA 3A                
1 27400U 02015B   22239.44840003 -.00000204  00000+0  00000+0 0  9997
2 27400   7.5382  58.6957 0001695 117.9448 233.6973  1.00271648 74783
NSS-7                   
1 27414U 02019A   22239.38993618 -.00000159  00000+0  00000+0 0  9999
2 27414   6.0607  70.7261 0002370  99.4359 285.8214  1.00271918 74632
NSS-6                   
1 27603U 02057A   22239.49316036  .00000105  00000+0  00000+0 0  9996
2 27603   1.7838  90.8559 0003254  68.0805 184.7594  1.00270570 72104
AMC-11 (GE-11)          
1 28252U 04017A   22239.44453830  .00000067  00000+0  00000+0 0  9991
2 28252   0.0103 260.5338 0002681 256.3302 207.8297  1.00271644 66945
AMC-15                  
1 28446U 04041A   22239.44473763 -.00000091  00000+0  00000+0 0  9998
2 28446   0.0657 293.3850 0002839 218.2402 239.0778  1.00271580 65387
NSS-10 (AMC-12)         
1 28526U 05003A   22239.39563185 -.00000253  00000+0  00000+0 0  9998
2 28526   2.9557  86.6006 0002824  57.2726 296.7195  1.00271725 39213
ASTRA 1KR               
1 29055U 06012A   22239.39146762  .00000117  00000+0  00000+0 0  9993
2 29055   0.0947 276.1207 0003595 270.6096 308.9885  1.00269693 31797
AMC-18                  
1 29644U 06054B   22239.44918484 -.00000218  00000+0  00000+0 0  9990
2 29644   0.0577 295.7682 0002635 231.4965 247.1002  1.00272080 57605
ASTRA 1L                
1 31306U 07016A   22239.32604083  .00000117  00000+0  00000+0 0  9998
2 31306   0.1044 293.8945 0001761 277.4586 260.7854  1.00269452 31070
ASTRA 4A (SIRIUS 4)     
1 32299U 07057A   22239.39702193  .00000030  00000+0  00000+0 0  9997
2 32299   0.0696 289.1499 0002646 228.5730 325.6202  1.00271409 37739
AMC-21                  
1 33275U 08038B   22239.45300324  .00000034  00000+0  00000+0 0  9993
2 33275   0.0567 297.1228 0002411 223.1099 213.6051  1.00271867 51551
ASTRA 1M                
1 33436U 08057A   22239.39146762  .00000117  00000+0  00000+0 0  9992
2 33436   0.0110 121.3321 0005165  28.1056 346.2853  1.00269996 31798
CIEL-2                  
1 33453U 08063A   22239.44782208  .00000055  00000+0  00000+0 0  9996
2 33453   0.0111 154.0048 0003003 355.3043 218.7104  1.00272375 50199
NSS-9                   
1 33749U 09008A   22239.48299292  .00000069  00000+0  00000+0 0  9999
2 33749   0.0187 267.9622 0002240 248.3628 176.3165  1.00271036 49595
SES-7 (PROTOSTAR 2)     
1 34941U 09027A   22239.48729140 -.00000348  00000+0  00000+0 0  9996
2 34941   0.0270 116.4813 0001524 121.0063  21.8923  1.00267444 48680
NSS-12                  
1 36032U 09058A   22239.44146380  .00000068  00000+0  00000+0 0  9996
2 36032   0.0184  91.5212 0002756  74.0569  25.9989  1.00272588 46982
SES-1                   
1 36516U 10016A   22236.90944444 -.00000119  00000+0  00000+0 0  9992
2 36516   0.0691 286.5307 0002170 230.6051  42.4175  1.00272167 45173
ASTRA 3B                
1 36581U 10021A   22239.38591074  .00000134  00000+0  00000+0 0  9998
2 36581   0.0456  36.0982 0003461 127.5196 334.3935  1.00271260 44943
SES-3                   
1 37748U 11035A   22239.53068942 -.00000104  00000+0  00000+0 0  9998
2 37748   0.0169 277.1066 0002684 246.0183 260.6606  1.00269200 40651
ASTRA 1N                
1 37775U 11041A   22239.39146762  .00000117  00000+0  00000+0 0  9999
2 37775   0.0506   7.1142 0002955  88.5071  40.1196  1.00269712 30593
SES-2                   
1 37809U 11049A   22239.44831284 -.00000198  00000+0  00000+0 0  9991
2 37809   0.0608 292.4438 0002678 223.1430 254.4664  1.00272054 40021
QUETZSAT 1              
1 37826U 11054A   22239.45031845 -.00000244  00000+0  00000+0 0  9994
2 37826   0.0128 251.6877 0002659 263.1297 265.9710  1.00269077 35951
SES-4                   
1 38087U 12007A   22239.43382669 -.00000171  00000+0  00000+0 0  9993
2 38087   0.0112  42.5811 0002267 117.8542 309.3795  1.00271012 38302
SES-5                   
1 38652U 12036A   22239.39702193  .00000031  00000+0  00000+0 0  9990
2 38652   0.0617 296.2337 0001914 218.3069 328.9707  1.00271423 30555
ASTRA 2F                
1 38778U 12051A   22239.38591074  .00000147  00000+0  00000+0 0  9997
2 38778   0.1023 256.7635 0003696 300.0914 305.8707  1.00269441 27192
SES-6                   
1 39172U 13026A   22239.45764330 -.00000264  00000+0  00000+0 0  9995
2 39172   0.0186 267.5421 0001922 246.2475 306.1414  1.00267954 33795
O3B FM5                 
1 39188U 13031A   22239.43833283 -.00000020  00000+0  00000+0 0  9990
2 39188   0.0580  20.4429 0002572 138.0940 201.4738  5.00115308167503
O3B FM4                 
1 39189U 13031B   22239.09460058 -.00000021  00000+0  00000+0 0  9990
2 39189   0.0552 351.9392 0002533 165.5113 202.5604  5.00115846167510
O3B FM2                 
1 39190U 13031C   22238.98616633 -.00000021  00000+0  00000+0 0  9991
2 39190   0.0571 347.2090 0002572 169.8524 202.9499  5.00116890167563
O3B PFM                 
1 39191U 13031D   22239.01241674 -.00000021  00000+0  00000+0 0  9996
2 39191   0.0540  12.0566 0002644 143.4681 204.4877  5.00115741167120
ASTRA 2E                
1 39285U 13056A   22239.38591074  .00000148  00000+0  00000+0 0  9998
2 39285   0.0591 359.5311 0002427 166.9599 336.5195  1.00277144 32509
SES-8                   
1 39460U 13071A   22239.48467539 -.00000273  00000+0  00000+0 0  9999
2 39460   0.0581 269.7977 0002093 228.3165 107.0641  1.00272638 30490
ASTRA 5B                
1 39617U 14011B   22239.38591074  .00000152  00000+0  00000+0 0  9994
2 39617   0.0157 343.7537 0004093 182.5715 339.6848  1.00271305 30731
O3B FM3                 
1 40079U 14038A   22239.26706647 -.00000021  00000+0  00000+0 0  9994
2 40079   0.0551   0.0213 0004997 147.1884 212.8211  5.00115393143519
O3B FM7                 
1 40080U 14038B   22239.41302838 -.00000020  00000+0  00000+0 0  9996
2 40080   0.0585 357.1539 0001331 201.7496 161.0915  5.00115494148625
O3B FM6                 
1 40081U 14038C   22239.43940354 -.00000020  00000+0  00000+0 0  9990
2 40081   0.0543 359.1377 0002681 157.6721 203.2022  5.00115423148294
O3B FM8                 
1 40082U 14038D   22239.29345212 -.00000021  00000+0  00000+0 0  9998
2 40082   0.0535 355.9099 0002661 157.3203 206.7834  5.00115675148413
O3B FM10                
1 40348U 14083A   22237.12068791 -.00000025  00000+0  00000+0 0  9991
2 40348   0.0502   8.1918 0002614 145.3060 206.5146  5.00115244140255
O3B FM11                
1 40349U 14083B   22239.33295191 -.00000021  00000+0  00000+0 0  9999
2 40349   0.0550   8.7466 0002356 162.5996 188.6578  5.00115409140381
O3B FM12                
1 40350U 14083C   22239.36015433 -.00000021  00000+0  00000+0 0  9993
2 40350   0.0546   7.9024 0002718 151.8784 200.2300  5.00115303140395
O3B FM9                 
1 40351U 14083D   22239.38708365 -.00000021  00000+0  00000+0 0  9999
2 40351   0.0561   9.1965 0002583 147.7199 203.0952  5.00115614140530
ASTRA 2G                
1 40364U 14089A   22239.38591074  .00000147  00000+0  00000+0 0  9994
2 40364   0.0471 339.1211 0003100 111.0473  52.5269  1.00272891 28034
SES-9                   
1 41380U 16013A   22239.48729140 -.00000348  00000+0  00000+0 0  9994
2 41380   0.0537 291.7979 0001665 193.5251 134.0990  1.00272556 23505
SES-10                  
1 42432U 17017A   22239.09705110 -.00000275  00000+0  00000+0 0  9995
2 42432   0.0273 115.8643 0002796  37.7890 149.7068  1.00270189 19806
SES-15                  
1 42709U 17026A   22239.44623779  .00000057  00000+0  00000+0 0  9998
2 42709   0.0362 336.7452 0000169 209.4699 180.9361  1.00269144 20209
SES-11 (ECHOSTAR 105)   
1 42967U 17063A   22239.44482483 -.00000092  00000+0  00000+0 0  9990
2 42967   0.0711 282.1939 0003213 249.0922 219.5620  1.00272591 17785
SES-14                  
1 43175U 18012B   22239.45624808 -.00000281  00000+0  00000+0 0  9997
2 43175   0.0412 300.2777 0000992 205.5289 306.6058  1.00271947 17115
O3B FM15                
1 43231U 18024A   22239.05323574 -.00000021  00000+0  00000+0 0  9997
2 43231   0.0468   8.1259 0002892 150.0410 201.8452  5.00116046 81486
O3B FM16                
1 43232U 18024B   22239.10661940 -.00000021  00000+0  00000+0 0  9996
2 43232   0.0428   9.3515 0002872 149.3845 201.2757  5.00115885 81406
O3B FM14                
1 43233U 18024C   22239.14623110 -.00000021  00000+0  00000+0 0  9998
2 43233   0.0413   8.9549 0002687 151.4773 199.5779  5.00115301 81418
O3B FM13                
1 43234U 18024D   22239.39962301 -.00000021  00000+0  00000+0 0  9994
2 43234   0.0520  33.0307 0003603 133.8722 193.1065  5.00115071 81531
SES-12                  
1 43488U 18049A   22239.48467539 -.00000273  00000+0  00000+0 0  9994
2 43488   0.0159  72.2746 0001537 167.3867   5.5138  1.00272862 15484
O3B FM20                
1 44112U 19020A   22239.37283903 -.00000021  00000+0  00000+0 0  9999
2 44112   0.0502   7.2997 0002965 158.3537 194.3550  5.00115480 62042
O3B FM19                
1 44113U 19020B   22239.39962064 -.00000021  00000+0  00000+0 0  9994
2 44113   0.0653  25.9719 0001831 140.1618 193.8713  5.00115559 61905
O3B FM17                
1 44114U 19020C   22239.28026233 -.00000021  00000+0  00000+0 0  9992
2 44114   0.0401 345.2498 0003004 173.9606 200.8016  5.00115608 61993
O3B FM18                
1 44115U 19020D   22239.42667989 -.00000020  00000+0  00000+0 0  9997
2 44115   0.0504   7.6935 0002865 148.1721 204.1478  5.00115792 62117
SES-17                  
1 49332U 21095A   22239.46021773 -.00000275  00000+0  00000+0 0  9999
2 49332   0.0125 116.8784 0000975  43.8382 273.5229  1.00269922  3908
SES-22                  
1 52933U 22071A   22239.53685181  .00000085  00000+0  00000+0 0  9990
2 52933   0.0674 278.4919 0002356 261.7552 213.7645  1.00272758   612
